[{"OBJECT_NAME":"HERMES-3","OBJECT_ID":"2025-052BR","EPOCH":"2026-03-09T22:30:01.073952","MEAN_MOTION":15.30039786,"ECCENTRICITY":0.00079928,"INCLINATION":97.3987,"RA_OF_ASC_NODE":324.6131,"ARG_OF_PERICENTER":112.9583,"MEAN_ANOMALY":247.2502,"EPHEMERIS_TYPE":0,"CLASSIFICATION_TYPE":"U","NORAD_CAT_ID":63835,"ELEMENT_SET_NO":999,"REV_AT_EPOCH":5486,"BSTAR":0.0006995793,"MEAN_MOTION_DOT":0.00020316,"MEAN_MOTION_DDOT":0},{"OBJECT_NAME":"STARLINK-35203","OBJECT_ID":"2025-198G","EPOCH":"2026-03-09T20:55:00.700032","MEAN_MOTION":15.3020186,"ECCENTRICITY":0.00010218,"INCLINATION":53.1582,"RA_OF_ASC_NODE":270.4597,"ARG_OF_PERICENTER":92.6309,"MEAN_ANOMALY":267.4809,"EPHEMERIS_TYPE":0,"CLASSIFICATION_TYPE":"U","NORAD_CAT_ID":65498,"ELEMENT_SET_NO":999,"REV_AT_EPOCH":2864,"BSTAR":0.0010082635,"MEAN_MOTION_DOT":0.00029623,"MEAN_MOTION_DDOT":0}]
