HERMES-3                
1 63835U 25052BR  26068.93751242  .00020316  00000+0  69958-3 0  9995
2 63835  97.3987 324.6131 0007993 112.9583 247.2502 15.30039785 54863
STARLINK-35203          
1 65498U 25198G   26068.87153588  .00029623  00000+0  10083-2 0  9999
2 65498  53.1582 270.4597 0001021  92.6309 267.4809 15.30201860 28647
